{
  "type": "FeatureCollection",
  "name": "Spears YMCA owned parcel",
  "features": [
    {
      "type": "Feature",
      "properties": {
        "reid": "241419",
        "pin": "7847035436-000",
        "address": "3216 HORSE PEN CREEK RD",
        "owner": "YOUNG MENS CHRISTIAN ASSOCIATION OF GREENSBORO INCORPORATED",
        "acreage": 8.52,
        "deeded_acres": 8.52,
        "deed_book": "005148",
        "deed_page": "01765",
        "plat_book_page": "218-70",
        "zoning": "CD-PI-PUBLIC AND INSTITUTIONAL",
        "source": "Guilford County GIS Parcels_Ownership",
        "queried": "2026-09-01"
      },
      "geometry": {
        "type": "Polygon",
        "coordinates": [
          [
            [
              -79.87789326678957,
              36.147821077243925
            ],
            [
              -79.87803534269129,
              36.145721149293934
            ],
            [
              -79.87968046603326,
              36.145691180347995
            ],
            [
              -79.87966723516544,
              36.14576187236302
            ],
            [
              -79.87962769636272,
              36.1462376294141
            ],
            [
              -79.87962870590289,
              36.14649723961435
            ],
            [
              -79.87956096991968,
              36.14649740646759
            ],
            [
              -79.87956587236422,
              36.14780839282843
            ],
            [
              -79.8792364958363,
              36.14783783840563
            ],
            [
              -79.8788953624793,
              36.147841338468616
            ],
            [
              -79.87820004177375,
              36.147843308495055
            ],
            [
              -79.87818029908983,
              36.14782245909836
            ],
            [
              -79.87789326678957,
              36.147821077243925
            ]
          ]
        ]
      }
    }
  ]
}